start=new Date('2022-08-18T00:00:00.000Z').valueOf();
sats=[{"MEAN_MOTION":"15.06405133","SEMIMAJOR_AXIS":"6925.333","LAUNCH_DATE":"2020-09-03","MEAN_MOTION_DDOT":"0.0000000000000","CENTER_NAME":"EARTH","EPHEMERIS_TYPE":"0","TLE_LINE2":"2 46356  53.0565  95.4069 0001336  86.2663 273.8479 15.06405133108273","EPOCH":"2022-08-17T01:13:44.314176","ELEMENT_SET_NO":"999","CLASSIFICATION_TYPE":"U","TIME_SYSTEM":"UTC","APOAPSIS":"548.123","OBJECT_TYPE":"PAYLOAD","COUNTRY_CODE":"US","SITE":"AFETR","REF_FRAME":"TEME","NORAD_CAT_ID":"46356","OBJECT_NAME":"STARLINK-1665","BSTAR":"0.00010545000000","INCLINATION":"53.0565","GP_ID":"210402614","MEAN_MOTION_DOT":"0.00001290","OBJECT_ID":"2020-062AH","ECCENTRICITY":"0.00013360","DECAY_DATE":null,"RA_OF_ASC_NODE":"95.4069","MEAN_ELEMENT_THEORY":"SGP4","RCS_SIZE":"LARGE","FILE":"3538809","REV_AT_EPOCH":"10827","TLE_LINE1":"1 46356U 20062AH  22229.05120734  .00001290  00000-0  10545-3 0  9993","ARG_OF_PERICENTER":"86.2663","PERIAPSIS":"546.273","PERIOD":"95.592","MEAN_ANOMALY":"273.8479"},{"TIME_SYSTEM":"UTC","APOAPSIS":"548.340","OBJECT_TYPE":"PAYLOAD","COUNTRY_CODE":"US","SITE":"AFETR","CENTER_NAME":"EARTH","EPHEMERIS_TYPE":"0","TLE_LINE2":"2 46357  53.0548  77.4942 0001615  72.3806 287.7359 15.06397271108487","EPOCH":"2022-08-16T14:03:40.539168","CLASSIFICATION_TYPE":"U","ELEMENT_SET_NO":"999","LAUNCH_DATE":"2020-09-03","MEAN_MOTION_DDOT":"0.0000000000000","MEAN_MOTION":"15.06397271","SEMIMAJOR_AXIS":"6925.357","FILE":"3537973","REV_AT_EPOCH":"10848","TLE_LINE1":"1 46357U 20062AJ  22228.58588587  .00001903  00000-0  14665-3 0  9993","PERIAPSIS":"546.103","PERIOD":"95.592","ARG_OF_PERICENTER":"72.3806","MEAN_ANOMALY":"287.7359","DECAY_DATE":null,"RA_OF_ASC_NODE":"77.4942","MEAN_ELEMENT_THEORY":"SGP4","RCS_SIZE":"LARGE","GP_ID":"210335188","INCLINATION":"53.0548","OBJECT_ID":"2020-062AJ","MEAN_MOTION_DOT":"0.00001903","ECCENTRICITY":"0.00016150","REF_FRAME":"TEME","NORAD_CAT_ID":"46357","OBJECT_NAME":"STARLINK-1666","BSTAR":"0.00014665000000"},{"MEAN_ELEMENT_THEORY":"SGP4","RCS_SIZE":"LARGE","RA_OF_ASC_NODE":"93.4232","DECAY_DATE":null,"MEAN_ANOMALY":"280.8267","TLE_LINE1":"1 46358U 20062AK  22229.49446638  .00003733  00000-0  26937-3 0  9993","ARG_OF_PERICENTER":"79.2920","PERIAPSIS":"545.996","PERIOD":"95.592","FILE":"3538809","REV_AT_EPOCH":"10834","OBJECT_NAME":"STARLINK-1690","BSTAR":"0.00026937000000","NORAD_CAT_ID":"46358","REF_FRAME":"TEME","ECCENTRICITY":"0.00017520","MEAN_MOTION_DOT":"0.00003733","OBJECT_ID":"2020-062AK","GP_ID":"210403614","INCLINATION":"53.0545","CLASSIFICATION_TYPE":"U","ELEMENT_SET_NO":"999","TLE_LINE2":"2 46358  53.0545  93.4232 0001752  79.2920 280.8267 15.06401357108348","EPOCH":"2022-08-17T11:52:01.895232","CENTER_NAME":"EARTH","EPHEMERIS_TYPE":"0","SITE":"AFETR","COUNTRY_CODE":"US","OBJECT_TYPE":"PAYLOAD","TIME_SYSTEM":"UTC","APOAPSIS":"548.423","SEMIMAJOR_AXIS":"6925.344","MEAN_MOTION":"15.06401357","MEAN_MOTION_DDOT":"0.0000000000000","LAUNCH_DATE":"2020-09-03"},{"OBJECT_TYPE":"PAYLOAD","APOAPSIS":"548.293","TIME_SYSTEM":"UTC","SITE":"AFETR","COUNTRY_CODE":"US","CENTER_NAME":"EARTH","EPHEMERIS_TYPE":"0","CLASSIFICATION_TYPE":"U","ELEMENT_SET_NO":"999","EPOCH":"2022-08-16T22:39:11.221632","TLE_LINE2":"2 46359  53.0548  50.9089 0001566  69.8498 290.2660 15.06401735108889","LAUNCH_DATE":"2020-09-03","MEAN_MOTION_DDOT":"0.0000000000000","MEAN_MOTION":"15.06401735","SEMIMAJOR_AXIS":"6925.343","FILE":"3538809","REV_AT_EPOCH":"10888","MEAN_ANOMALY":"290.2660","TLE_LINE1":"1 46359U 20062AL  22228.94387988  .00000542  00000-0  55278-4 0  9991","PERIOD":"95.592","PERIAPSIS":"546.124","ARG_OF_PERICENTER":"69.8498","DECAY_DATE":null,"MEAN_ELEMENT_THEORY":"SGP4","RCS_SIZE":"LARGE","RA_OF_ASC_NODE":"50.9089","OBJECT_ID":"2020-062AL","MEAN_MOTION_DOT":"0.00000542","GP_ID":"210404364","INCLINATION":"53.0548","ECCENTRICITY":"0.00015660","NORAD_CAT_ID":"46359","REF_FRAME":"TEME","OBJECT_NAME":"STARLINK-1707","BSTAR":"0.00005527800000"},{"GP_ID":"210403114","INCLINATION":"53.0551","MEAN_MOTION_DOT":"0.00002240","OBJECT_ID":"2020-062AM","ECCENTRICITY":"0.00014100","REF_FRAME":"TEME","NORAD_CAT_ID":"46360","OBJECT_NAME":"STARLINK-1713","BSTAR":"0.00016917000000","FILE":"3538809","REV_AT_EPOCH":"10897","TLE_LINE1":"1 46360U 20062AM  22229.49677259  .00002240  00000-0  16917-3 0  9990","PERIAPSIS":"546.217","ARG_OF_PERICENTER":"77.3906","PERIOD":"95.592","MEAN_ANOMALY":"282.7240","DECAY_DATE":null,"RA_OF_ASC_NODE":"48.4216","MEAN_ELEMENT_THEORY":"SGP4","RCS_SIZE":"LARGE","LAUNCH_DATE":"2020-09-03","MEAN_MOTION_DDOT":"0.0000000000000","MEAN_MOTION":"15.06406392","SEMIMAJOR_AXIS":"6925.329","APOAPSIS":"548.170","TIME_SYSTEM":"UTC","OBJECT_TYPE":"PAYLOAD","COUNTRY_CODE":"US","SITE":"AFETR","EPHEMERIS_TYPE":"0","CENTER_NAME":"EARTH","EPOCH":"2022-08-17T11:55:21.151776","TLE_LINE2":"2 46360  53.0551  48.4216 0001410  77.3906 282.7240 15.06406392108979","CLASSIFICATION_TYPE":"U","ELEMENT_SET_NO":"999"},{"MEAN_MOTION":"15.06405709","SEMIMAJOR_AXIS":"6925.331","LAUNCH_DATE":"2020-09-03","MEAN_MOTION_DDOT":"0.0000000000000","EPHEMERIS_TYPE":"0","CENTER_NAME":"EARTH","CLASSIFICATION_TYPE":"U","ELEMENT_SET_NO":"999","EPOCH":"2022-08-16T22:27:12.524832","TLE_LINE2":"2 46361  53.0536  50.9144 0001335  95.4045 264.7096 15.06405709108882","OBJECT_TYPE":"PAYLOAD","TIME_SYSTEM":"UTC","APOAPSIS":"548.121","SITE":"AFETR","COUNTRY_CODE":"US","NORAD_CAT_ID":"46361","REF_FRAME":"TEME","BSTAR":"0.00017098000000","OBJECT_NAME":"STARLINK-1722","MEAN_MOTION_DOT":"0.00002267","OBJECT_ID":"2020-062AN","GP_ID":"210403364","INCLINATION":"53.0536","ECCENTRICITY":"0.00013350","DECAY_DATE":null,"RCS_SIZE":"LARGE","MEAN_ELEMENT_THEORY":"SGP4","RA_OF_ASC_NODE":"50.9144","REV_AT_EPOCH":"10888","FILE":"3538809","MEAN_ANOMALY":"264.7096","ARG_OF_PERICENTER":"95.4045","PERIAPSIS":"546.272","PERIOD":"95.592","TLE_LINE1":"1 46361U 20062AN  22228.93556163  .00002267  00000-0  17098-3 0  9999"},{"OBJECT_TYPE":"PAYLOAD","APOAPSIS":"548.159","TIME_SYSTEM":"UTC","SITE":"AFETR","COUNTRY_CODE":"US","EPHEMERIS_TYPE":"0","CENTER_NAME":"EARTH","ELEMENT_SET_NO":"999","CLASSIFICATION_TYPE":"U","TLE_LINE2":"2 46362  53.0558  48.6495 0001370  81.0388 279.0756 15.06401221108966","EPOCH":"2022-08-17T10:41:01.893120","LAUNCH_DATE":"2020-09-03","MEAN_MOTION_DDOT":"0.0000000000000","MEAN_MOTION":"15.06401221","SEMIMAJOR_AXIS":"6925.345","REV_AT_EPOCH":"10896","FILE":"3538809","MEAN_ANOMALY":"279.0756","PERIAPSIS":"546.261","ARG_OF_PERICENTER":"81.0388","PERIOD":"95.592","TLE_LINE1":"1 46362U 20062AP  22229.44516080  .00000670  00000-0  63889-4 0  9997","DECAY_DATE":null,"RCS_SIZE":"LARGE","MEAN_ELEMENT_THEORY":"SGP4","RA_OF_ASC_NODE":"48.6495","OBJECT_ID":"2020-062AP","MEAN_MOTION_DOT":"0.00000670","INCLINATION":"53.0558","GP_ID":"210404114","ECCENTRICITY":"0.00013700","NORAD_CAT_ID":"46362","REF_FRAME":"TEME","BSTAR":"0.00006388900000","OBJECT_NAME":"STARLINK-1726"},{"MEAN_MOTION":"15.06406301","SEMIMAJOR_AXIS":"6925.329","LAUNCH_DATE":"2020-09-03","MEAN_MOTION_DDOT":"0.0000000000000","CENTER_NAME":"EARTH","EPHEMERIS_TYPE":"0","TLE_LINE2":"2 46363  53.0544  48.3607 0001596  77.7389 282.3778 15.06406301108973","EPOCH":"2022-08-17T12:04:36.258816","CLASSIFICATION_TYPE":"U","ELEMENT_SET_NO":"999","TIME_SYSTEM":"UTC","APOAPSIS":"548.300","OBJECT_TYPE":"PAYLOAD","COUNTRY_CODE":"US","SITE":"AFETR","REF_FRAME":"TEME","NORAD_CAT_ID":"46363","BSTAR":"0.00018667000000","OBJECT_NAME":"STARLINK-1739","INCLINATION":"53.0544","GP_ID":"210403865","OBJECT_ID":"2020-062AQ","MEAN_MOTION_DOT":"0.00002500","ECCENTRICITY":"0.00015960","DECAY_DATE":null,"RA_OF_ASC_NODE":"48.3607","RCS_SIZE":"LARGE","MEAN_ELEMENT_THEORY":"SGP4","REV_AT_EPOCH":"10897","FILE":"3538809","PERIOD":"95.592","PERIAPSIS":"546.089","ARG_OF_PERICENTER":"77.7389","TLE_LINE1":"1 46363U 20062AQ  22229.50319744  .00002500  00000-0  18667-3 0  9990","MEAN_ANOMALY":"282.3778"},{"MEAN_MOTION":"15.06400954","SEMIMAJOR_AXIS":"6925.346","LAUNCH_DATE":"2020-09-03","MEAN_MOTION_DDOT":"0.0000000000000","CENTER_NAME":"EARTH","EPHEMERIS_TYPE":"0","EPOCH":"2022-08-17T05:46:32.766528","TLE_LINE2":"2 46364  53.0559  30.0544 0001572 129.2320 230.8809 15.06400954109208","ELEMENT_SET_NO":"999","CLASSIFICATION_TYPE":"U","APOAPSIS":"548.299","TIME_SYSTEM":"UTC","OBJECT_TYPE":"PAYLOAD","COUNTRY_CODE":"US","SITE":"AFETR","REF_FRAME":"TEME","NORAD_CAT_ID":"46364","BSTAR":"0.00014861000000","OBJECT_NAME":"STARLINK-1763","GP_ID":"210402615","INCLINATION":"53.0559","OBJECT_ID":"2020-062AR","MEAN_MOTION_DOT":"0.00001933","ECCENTRICITY":"0.00015720","DECAY_DATE":null,"RA_OF_ASC_NODE":"30.0544","RCS_SIZE":"LARGE","MEAN_ELEMENT_THEORY":"SGP4","REV_AT_EPOCH":"10920","FILE":"3538809","ARG_OF_PERICENTER":"129.2320","PERIAPSIS":"546.122","PERIOD":"95.592","TLE_LINE1":"1 46364U 20062AR  22229.24065702  .00001933  00000-0  14861-3 0  9995","MEAN_ANOMALY":"230.8809"},{"APOAPSIS":"548.153","TIME_SYSTEM":"UTC","OBJECT_TYPE":"PAYLOAD","COUNTRY_CODE":"US","SITE":"AFETR","EPHEMERIS_TYPE":"0","CENTER_NAME":"EARTH","TLE_LINE2":"2 46365  53.0554  48.1765 0001358  80.5231 279.5912 15.06400476108978","EPOCH":"2022-08-17T13:09:39.972384","CLASSIFICATION_TYPE":"U","ELEMENT_SET_NO":"999","LAUNCH_DATE":"2020-09-03","MEAN_MOTION_DDOT":"0.0000000000000","MEAN_MOTION":"15.06400476","SEMIMAJOR_AXIS":"6925.347","REV_AT_EPOCH":"10897","FILE":"3538809","ARG_OF_PERICENTER":"80.5231","PERIAPSIS":"546.272","PERIOD":"95.592","TLE_LINE1":"1 46365U 20062AS  22229.54837931  .00000040  00000-0  21599-4 0  9995","MEAN_ANOMALY":"279.5912","DECAY_DATE":null,"RA_OF_ASC_NODE":"48.1765","RCS_SIZE":"LARGE","MEAN_ELEMENT_THEORY":"SGP4","GP_ID":"210402865","INCLINATION":"53.0554","OBJECT_ID":"2020-062AS","MEAN_MOTION_DOT":"0.00000040","ECCENTRICITY":"0.00013580","REF_FRAME":"TEME","NORAD_CAT_ID":"46365","BSTAR":"0.00002159900000","OBJECT_NAME":"STARLINK-1550"}];
